{
  "type": "FeatureCollection",
  "features": [
    {
      "type": "Feature",
      "properties": {
        "norad_id": 40362,
        "name": "YAOGAN-26",
        "group": "resource",
        "lat": -61.651833712254756,
        "lon": -2.511513887547299,
        "alt_km": 456.76695586383903,
        "timestamp": "2025-12-09T09:46:47.304214+00:00",
        "meta_object_name": "YAOGAN-26",
        "meta_object_id": "2014-088A",
        "meta_epoch": "2025-12-08T23:07:41.539872",
        "meta_mean_motion": 15.3909864,
        "meta_eccentricity": 0.00067987,
        "meta_inclination": 97.0641,
        "meta_ra_of_asc_node": 343.7726,
        "meta_arg_of_pericenter": 39.7983,
        "meta_mean_anomaly": 320.3761,
        "meta_ephemeris_type": 0,
        "meta_classification_type": "U",
        "meta_norad_cat_id": 40362,
        "meta_element_set_no": 999,
        "meta_rev_at_epoch": 60836,
        "meta_bstar": 0.00071982026,
        "meta_mean_motion_dot": 0.00027892,
        "meta_mean_motion_ddot": 0,
        "tle_line1": "1 40362U 14088A   25342.96367523  .00027892  00000+0  71982-3 0  9990",
        "tle_line2": "2 40362  97.0641 343.7726 0006798  39.7983 320.3761 15.39098640608365"
      },
      "geometry": {
        "type": "Point",
        "coordinates": [
          -2.511513887547299,
          -61.651833712254756
        ]
      }
    },
    {
      "type": "Feature",
      "properties": {
        "norad_id": 40376,
        "name": "SMAP",
        "group": "resource",
        "lat": 14.627303409549288,
        "lon": -13.958537997004447,
        "alt_km": 683.0659304700366,
        "timestamp": "2025-12-09T09:46:47.304225+00:00",
        "meta_object_name": "SMAP",
        "meta_object_id": "2015-003A",
        "meta_epoch": "2025-12-09T03:08:53.559744",
        "meta_mean_motion": 14.63337369,
        "meta_eccentricity": 0.0001206,
        "meta_inclination": 98.1291,
        "meta_ra_of_asc_node": 347.907,
        "meta_arg_of_pericenter": 88.3513,
        "meta_mean_anomaly": 271.7827,
        "meta_ephemeris_type": 0,
        "meta_classification_type": "U",
        "meta_norad_cat_id": 40376,
        "meta_element_set_no": 999,
        "meta_rev_at_epoch": 57982,
        "meta_bstar": 0.00017918,
        "meta_mean_motion_dot": 8.78e-06,
        "meta_mean_motion_ddot": 0,
        "tle_line1": "1 40376U 15003A   25343.13117546  .00000878  00000+0  17918-3 0  9995",
        "tle_line2": "2 40376  98.1291 347.9070 0001206  88.3513 271.7827 14.63337369579829"
      },
      "geometry": {
        "type": "Point",
        "coordinates": [
          -13.958537997004447,
          14.627303409549288
        ]
      }
    },
    {
      "type": "Feature",
      "properties": {
        "norad_id": 40536,
        "name": "KOMPSAT-3A",
        "group": "resource",
        "lat": -2.507906859302878,
        "lon": 137.23181145444406,
        "alt_km": 436.49657969075724,
        "timestamp": "2025-12-09T09:46:47.304236+00:00",
        "meta_object_name": "KOMPSAT-3A",
        "meta_object_id": "2015-014A",
        "meta_epoch": "2025-12-08T22:06:09.864864",
        "meta_mean_motion": 15.43731285,
        "meta_eccentricity": 0.00044771,
        "meta_inclination": 97.679,
        "meta_ra_of_asc_node": 317.0571,
        "meta_arg_of_pericenter": 134.6279,
        "meta_mean_anomaly": 225.5334,
        "meta_ephemeris_type": 0,
        "meta_classification_type": "U",
        "meta_norad_cat_id": 40536,
        "meta_element_set_no": 999,
        "meta_rev_at_epoch": 59236,
        "meta_bstar": 0.00049293706,
        "meta_mean_motion_dot": 0.00022213,
        "meta_mean_motion_ddot": 0,
        "tle_line1": "1 40536U 15014A   25342.92094751  .00022213  00000+0  49294-3 0  9992",
        "tle_line2": "2 40536  97.6790 317.0571 0004477 134.6279 225.5334 15.43731285592364"
      },
      "geometry": {
        "type": "Point",
        "coordinates": [
          137.23181145444406,
          -2.507906859302878
        ]
      }
    },
    {
      "type": "Feature",
      "properties": {
        "norad_id": 40697,
        "name": "SENTINEL-2A",
        "group": "resource",
        "lat": -80.99665037820203,
        "lon": 128.10345652080838,
        "alt_km": 797.0578828991265,
        "timestamp": "2025-12-09T09:46:47.304246+00:00",
        "meta_object_name": "SENTINEL-2A",
        "meta_object_id": "2015-028A",
        "meta_epoch": "2025-12-08T22:26:20.111136",
        "meta_mean_motion": 14.30824256,
        "meta_eccentricity": 0.0001045,
        "meta_inclination": 98.5695,
        "meta_ra_of_asc_node": 55.5218,
        "meta_arg_of_pericenter": 90.1302,
        "meta_mean_anomaly": 270.0001,
        "meta_ephemeris_type": 0,
        "meta_classification_type": "U",
        "meta_norad_cat_id": 40697,
        "meta_element_set_no": 999,
        "meta_rev_at_epoch": 54652,
        "meta_bstar": 2.4366053e-05,
        "meta_mean_motion_dot": 2e-07,
        "meta_mean_motion_ddot": 0,
        "tle_line1": "1 40697U 15028A   25342.93495499  .00000020  00000+0  24366-4 0  9996",
        "tle_line2": "2 40697  98.5695  55.5218 0001045  90.1302 270.0001 14.30824256546528"
      },
      "geometry": {
        "type": "Point",
        "coordinates": [
          128.10345652080838,
          -80.99665037820203
        ]
      }
    },
    {
      "type": "Feature",
      "properties": {
        "norad_id": 40701,
        "name": "GAOFEN-8",
        "group": "resource",
        "lat": 68.40048265904085,
        "lon": 1.344253983313863,
        "alt_km": 438.23961496563425,
        "timestamp": "2025-12-09T09:46:47.304257+00:00",
        "meta_object_name": "GAOFEN-8",
        "meta_object_id": "2015-030A",
        "meta_epoch": "2025-12-09T04:37:08.548320",
        "meta_mean_motion": 15.38353277,
        "meta_eccentricity": 0.0011449,
        "meta_inclination": 97.691,
        "meta_ra_of_asc_node": 161.1606,
        "meta_arg_of_pericenter": 149.8511,
        "meta_mean_anomaly": 210.3394,
        "meta_ephemeris_type": 0,
        "meta_classification_type": "U",
        "meta_norad_cat_id": 40701,
        "meta_element_set_no": 999,
        "meta_rev_at_epoch": 58216,
        "meta_bstar": 0.00032101,
        "meta_mean_motion_dot": 0.0001208,
        "meta_mean_motion_ddot": 0,
        "tle_line1": "1 40701U 15030A   25343.19246005  .00012080  00000+0  32101-3 0  9995",
        "tle_line2": "2 40701  97.6910 161.1606 0011449 149.8511 210.3394 15.38353277582163"
      },
      "geometry": {
        "type": "Point",
        "coordinates": [
          1.344253983313863,
          68.40048265904085
        ]
      }
    },
    {
      "type": "Feature",
      "properties": {
        "norad_id": 40718,
        "name": "CARBONITE 1 (CBNT-1)",
        "group": "resource",
        "lat": -10.69796960562539,
        "lon": 166.0512453565909,
        "alt_km": 634.1935061304712,
        "timestamp": "2025-12-09T09:46:47.304267+00:00",
        "meta_object_name": "CARBONITE 1 (CBNT-1)",
        "meta_object_id": "2015-032D",
        "meta_epoch": "2025-12-09T03:20:59.674848",
        "meta_mean_motion": 14.82715962,
        "meta_eccentricity": 0.0014141,
        "meta_inclination": 97.6404,
        "meta_ra_of_asc_node": 164.3421,
        "meta_arg_of_pericenter": 193.063,
        "meta_mean_anomaly": 167.022,
        "meta_ephemeris_type": 0,
        "meta_classification_type": "U",
        "meta_norad_cat_id": 40718,
        "meta_element_set_no": 999,
        "meta_rev_at_epoch": 56117,
        "meta_bstar": 0.00029179,
        "meta_mean_motion_dot": 2.309e-05,
        "meta_mean_motion_ddot": 0,
        "tle_line1": "1 40718U 15032D   25343.13957957  .00002309  00000+0  29179-3 0  9998",
        "tle_line2": "2 40718  97.6404 164.3421 0014141 193.0630 167.0220 14.82715962561179"
      },
      "geometry": {
        "type": "Point",
        "coordinates": [
          166.0512453565909,
          -10.69796960562539
        ]
      }
    },
    {
      "type": "Feature",
      "properties": {
        "norad_id": 40878,
        "name": "YAOGAN-27",
        "group": "resource",
        "lat": -61.94021709120744,
        "lon": 133.64317025273778,
        "alt_km": 1203.253083696789,
        "timestamp": "2025-12-09T09:46:47.304278+00:00",
        "meta_object_name": "YAOGAN-27",
        "meta_object_id": "2015-040A",
        "meta_epoch": "2025-12-08T23:25:20.279424",
        "meta_mean_motion": 13.16058269,
        "meta_eccentricity": 0.00076725,
        "meta_inclination": 100.1004,
        "meta_ra_of_asc_node": 332.7656,
        "meta_arg_of_pericenter": 296.0151,
        "meta_mean_anomaly": 64.0172,
        "meta_ephemeris_type": 0,
        "meta_classification_type": "U",
        "meta_norad_cat_id": 40878,
        "meta_element_set_no": 999,
        "meta_rev_at_epoch": 49264,
        "meta_bstar": -0.00083404829,
        "meta_mean_motion_dot": -3.59e-06,
        "meta_mean_motion_ddot": 0,
        "tle_line1": "1 40878U 15040A   25342.97592916 -.00000359  00000+0 -83405-3 0  9992",
        "tle_line2": "2 40878 100.1004 332.7656 0007672 296.0151  64.0172 13.16058269492649"
      },
      "geometry": {
        "type": "Point",
        "coordinates": [
          133.64317025273778,
          -61.94021709120744
        ]
      }
    }
  ]
}